[{"OBJECT_NAME":"PICO-01A003","OBJECT_ID":"2023-174BY","EPOCH":"2026-03-09T22:00:02.486016","MEAN_MOTION":15.41977893,"ECCENTRICITY":0.00070833,"INCLINATION":97.383,"RA_OF_ASC_NODE":152.7854,"ARG_OF_PERICENTER":152.9291,"MEAN_ANOMALY":207.2327,"EPHEMERIS_TYPE":0,"CLASSIFICATION_TYPE":"U","NORAD_CAT_ID":58326,"ELEMENT_SET_NO":999,"REV_AT_EPOCH":13009,"BSTAR":0.00057902157,"MEAN_MOTION_DOT":0.00024643,"MEAN_MOTION_DDOT":0},{"OBJECT_NAME":"FLOCK 4BE-11","OBJECT_ID":"2024-149AK","EPOCH":"2026-03-09T15:40:48.031680","MEAN_MOTION":15.39310468,"ECCENTRICITY":0.00031051,"INCLINATION":97.3734,"RA_OF_ASC_NODE":151.8871,"ARG_OF_PERICENTER":261.1576,"MEAN_ANOMALY":98.9318,"EPHEMERIS_TYPE":0,"CLASSIFICATION_TYPE":"U","NORAD_CAT_ID":60501,"ELEMENT_SET_NO":999,"REV_AT_EPOCH":8702,"BSTAR":0.00060399603,"MEAN_MOTION_DOT":0.00023523,"MEAN_MOTION_DDOT":0}]
